[{"OBJECT_NAME":"STARLINK-2241","OBJECT_ID":"2021-041AK","EPOCH":"2026-03-09T11:24:03.084480","MEAN_MOTION":15.06413807,"ECCENTRICITY":0.0001425,"INCLINATION":53.0538,"RA_OF_ASC_NODE":142.584,"ARG_OF_PERICENTER":96.6118,"MEAN_ANOMALY":263.5033,"EPHEMERIS_TYPE":0,"CLASSIFICATION_TYPE":"U","NORAD_CAT_ID":48586,"ELEMENT_SET_NO":999,"REV_AT_EPOCH":26502,"BSTAR":0.00062619554,"MEAN_MOTION_DOT":9.061e-5,"MEAN_MOTION_DDOT":0},{"OBJECT_NAME":"JILIN-1 KUANFU 01C","OBJECT_ID":"2022-048A","EPOCH":"2026-03-09T22:44:12.026688","MEAN_MOTION":15.09601076,"ECCENTRICITY":0.00140886,"INCLINATION":97.5312,"RA_OF_ASC_NODE":147.8831,"ARG_OF_PERICENTER":308.8335,"MEAN_ANOMALY":51.1636,"EPHEMERIS_TYPE":0,"CLASSIFICATION_TYPE":"U","NORAD_CAT_ID":52443,"ELEMENT_SET_NO":999,"REV_AT_EPOCH":21222,"BSTAR":0.00028577595,"MEAN_MOTION_DOT":4.539e-5,"MEAN_MOTION_DDOT":0}]
